{
"type": "FeatureCollection",
"name": "mati",
"crs": { "type": "name", "properties": { "name": "urn:ogc:def:crs:OGC:1.3:CRS84" } },
"features": [
{ "type": "Feature", "properties": { "MINX": 757670.0, "MINY": 4211870.0, "MAXX": 768070.0, "MAXY": 4217590.0, "CNTX": 762870.0, "CNTY": 4214730.0, "AREA": 59488000.0, "PERIM": 32240.0, "HEIGHT": 5720.0, "WIDTH": 10400.0 }, "geometry": { "type": "Polygon", "coordinates": [ [ [ 23.935228911083463, 38.017916640094349 ], [ 24.0535477530679, 38.014900946115588 ], [ 24.055688280145098, 38.066380940244194 ], [ 23.937286793664498, 38.069402187359138 ], [ 23.935228911083463, 38.017916640094349 ] ] ] } }
]
}
